{"type":"FeatureCollection", "features": [
{"type":"Feature","geometry":{"type":"Polygon","coordinates":[[[-80.3902674,8.3012306],[-80.3899298,8.2906037],[-80.3825918,8.2893009],[-80.3673559,8.297207],[-80.3546407,8.294074],[-80.3231969,8.3040531],[-80.3202418,8.3041551],[-80.3199847,8.3008272],[-80.3232579,8.301344],[-80.3201701,8.2990842],[-80.3051834,8.2964533],[-80.2773516,8.3009132],[-80.2687893,8.2966372],[-80.2423918,8.3012837],[-80.1827301,8.32669],[-80.1235536,8.3647797],[-80.0432998,8.4079121],[-80.0501464,8.412017],[-80.0473569,8.4141502],[-80.0515411,8.419425],[-80.0546417,8.4149569],[-80.0583861,8.4183637],[-80.0605994,8.4270258],[-80.066173,8.4296578],[-80.0688649,8.446882],[-80.0807539,8.4640844],[-80.0875551,8.4656601],[-80.0871021,8.4727139],[-80.0933281,8.4759272],[-80.0948462,8.4874433],[-80.0994408,8.4888016],[-80.0949132,8.5006887],[-80.0966406,8.5119574],[-80.0900129,8.5276264],[-80.0948489,8.5363877],[-80.0982767,8.5343611],[-80.0960773,8.5401276],[-80.1006129,8.5426395],[-80.1011199,8.5489947],[-80.1092631,8.5542597],[-80.1116931,8.5781569],[-80.1210258,8.5888356],[-80.1063977,8.5903339],[-80.1015878,8.605047],[-80.1061416,8.6267026],[-80.1044096,8.6357771],[-80.1115808,8.6371086],[-80.1102314,8.6484478],[-80.1168257,8.6573825],[-80.1339104,8.6438892],[-80.1400044,8.6476865],[-80.1537802,8.6196409],[-80.1793149,8.6165859],[-80.1861334,8.5876033],[-80.2314199,8.5671919],[-80.2360225,8.5557657],[-80.2459038,8.5507421],[-80.2470357,8.5463868],[-80.2575446,8.5425143],[-80.2675438,8.5454744],[-80.2793938,8.5423445],[-80.2806572,8.5276629],[-80.2998618,8.513819],[-80.3072513,8.4906136],[-80.3074122,8.4833554],[-80.3033567,8.4815833],[-80.3198834,8.4576717],[-80.3146634,8.4439348],[-80.3163383,8.4333182],[-80.3223552,8.4269802],[-80.3190866,8.4250499],[-80.322778,8.4248408],[-80.3212657,8.4145132],[-80.3264044,8.411521],[-80.3242091,8.3963668],[-80.3344703,8.3875024],[-80.3307789,8.376836],[-80.3340963,8.3737148],[-80.3327791,8.3501284],[-80.3371755,8.3384676],[-80.3595988,8.3317798],[-80.3586761,8.3256439],[-80.3614072,8.3278382],[-80.3616994,8.3248449],[-80.3527439,8.3156945],[-80.3553566,8.3135259],[-80.3591554,8.3165194],[-80.3554676,8.3077587],[-80.3587378,8.3080459],[-80.3602526,8.3023795],[-80.3702633,8.3031591],[-80.3749196,8.3085097],[-80.3902674,8.3012306]]]},"properties":{"admin_level":"6","alt_name":"Distrito de Antón","boundary":"administrative","expected_level_8:2010":"10","name":"Antón","type":"boundary","wikidata":"Q2216997","wikipedia":"es:Distrito de Antón","id":"relation/8433063"},"id":"relation/8433063"},
{"type":"Feature","geometry":{"type":"Polygon","coordinates":[[[-80.7023241,8.3275424],[-80.6801323,8.324123],[-80.670372,8.3155098],[-80.6622556,8.3157408],[-80.6469006,8.3004453],[-80.6437157,8.3045858],[-80.6281646,8.3060091],[-80.6119815,8.2963592],[-80.6083981,8.2855939],[-80.5928943,8.281738],[-80.5815268,8.2688801],[-80.5676632,8.2728831],[-80.5545032,8.266561],[-80.548208,8.2707111],[-80.5468163,8.2677811],[-80.5407734,8.2743897],[-80.5252517,8.2724966],[-80.5013054,8.2796543],[-80.4994364,8.2743501],[-80.4932421,8.2767004],[-80.4937372,8.272421],[-80.4905896,8.2741586],[-80.4877951,8.2697565],[-80.4929096,8.2704882],[-80.4906998,8.2664881],[-80.4950474,8.2624912],[-80.4861988,8.2541696],[-80.4933227,8.2509631],[-80.4912413,8.2443588],[-80.4975499,8.2414282],[-80.4748637,8.2365227],[-80.4710538,8.2265739],[-80.4615241,8.2188003],[-80.4549819,8.2209976],[-80.4608415,8.2171556],[-80.4521459,8.221594],[-80.4433805,8.232456],[-80.454576,8.2258043],[-80.4453063,8.2411795],[-80.4479832,8.2489412],[-80.434497,8.256294],[-80.4278344,8.2719972],[-80.4096758,8.2898894],[-80.3940627,8.2901256],[-80.3902674,8.3012306],[-80.3947842,8.3161039],[-80.3864586,8.3281105],[-80.3941512,8.333811],[-80.3959322,8.3247347],[-80.4016171,8.3226604],[-80.3986681,8.3284183],[-80.4032359,8.3389516],[-80.3975898,8.3459391],[-80.4060575,8.3505514],[-80.4100379,8.3500392],[-80.4056311,8.3474173],[-80.4097617,8.3475526],[-80.4102176,8.3431075],[-80.4165986,8.3485478],[-80.4152924,8.3403024],[-80.4200721,8.3433251],[-80.4211986,8.3358705],[-80.4307741,8.3426935],[-80.4318658,8.3353901],[-80.4342744,8.3398141],[-80.4364678,8.3368426],[-80.4399231,8.3411755],[-80.4477042,8.3410163],[-80.4565448,8.3336916],[-80.4567432,8.3275372],[-80.4739121,8.3247851],[-80.4715598,8.333535],[-80.4775089,8.3325027],[-80.4746872,8.3391772],[-80.4803091,8.3388693],[-80.4829028,8.3437869],[-80.4770305,8.3682967],[-80.4854452,8.3637428],[-80.4844804,8.3802522],[-80.4898266,8.3810346],[-80.4865841,8.3835226],[-80.4921043,8.3856195],[-80.4912343,8.3917222],[-80.4975296,8.3851657],[-80.4969918,8.3920664],[-80.4924206,8.3948987],[-80.503809,8.4013768],[-80.4998231,8.4061805],[-80.5030972,8.40931],[-80.4981939,8.4139728],[-80.4986295,8.4201543],[-80.5087389,8.4337619],[-80.5068231,8.4544009],[-80.5207795,8.4715817],[-80.5251652,8.4876881],[-80.5280674,8.5000011],[-80.5439683,8.5221367],[-80.5438098,8.5578446],[-80.5663842,8.5665476],[-80.5821323,8.5629637],[-80.5823348,8.5675971],[-80.5980096,8.578672],[-80.6073131,8.5748222],[-80.6143423,8.5775527],[-80.6251472,8.5904522],[-80.6516569,8.5806321],[-80.6461274,8.5517662],[-80.6201566,8.5385553],[-80.5858391,8.5107518],[-80.5892346,8.4775154],[-80.5786911,8.476572],[-80.5722753,8.4603359],[-80.5771247,8.4566641],[-80.5761377,8.4497024],[-80.562276,8.436458],[-80.5890337,8.4089382],[-80.5862013,8.3987915],[-80.6195466,8.367883],[-80.6892411,8.385142],[-80.7080809,8.4108486],[-80.722994,8.4150621],[-80.7386581,8.4510396],[-80.74325,8.4810926],[-80.7366625,8.5436529],[-80.7441727,8.5538806],[-80.7639138,8.5504007],[-80.7849247,8.5567319],[-80.7917827,8.5547185],[-80.8141234,8.564808],[-80.8234709,8.5535893],[-80.836086,8.5484802],[-80.8220683,8.5400024],[-80.8186206,8.5328522],[-80.8069223,8.5280177],[-80.7933085,8.5086306],[-80.781767,8.4995949],[-80.7883418,8.4739656],[-80.7777731,8.474634],[-80.7558061,8.4518114],[-80.7586684,8.4378925],[-80.7524397,8.4305913],[-80.7547358,8.4262044],[-80.7239701,8.3743388],[-80.7261066,8.3524873],[-80.7175362,8.3416365],[-80.7052087,8.3356706],[-80.7023241,8.3275424]]]},"properties":{"admin_level":"6","alt_name":"Distrito de Natá","boundary":"administrative","expected_level_8:2010":"6","name":"Natá","type":"boundary","wikidata":"Q2215891","wikipedia":"es:Distrito de Natá","id":"relation/8434006"},"id":"relation/8434006"},
{"type":"Feature","geometry":{"type":"Polygon","coordinates":[[[-80.7849247,8.5567319],[-80.7639138,8.5504007],[-80.7441727,8.5538806],[-80.7366625,8.5436529],[-80.74325,8.4810926],[-80.7386581,8.4510396],[-80.722994,8.4150621],[-80.7080809,8.4108486],[-80.6892411,8.385142],[-80.6195466,8.367883],[-80.5862013,8.3987915],[-80.5890337,8.4089382],[-80.562276,8.436458],[-80.5761377,8.4497024],[-80.5771247,8.4566641],[-80.5722753,8.4603359],[-80.5786911,8.476572],[-80.5892346,8.4775154],[-80.5858391,8.5107518],[-80.6201566,8.5385553],[-80.6461274,8.5517662],[-80.6516569,8.5806321],[-80.653467,8.5863926],[-80.6614984,8.5908374],[-80.6882598,8.5905945],[-80.7267664,8.6207363],[-80.7528805,8.6289588],[-80.75678,8.6194869],[-80.7498884,8.5985019],[-80.7703093,8.5850337],[-80.7849247,8.5567319]]]},"properties":{"admin_level":"6","alt_name":"Distrito de Olá","boundary":"administrative","expected_level_8:2010":"5","name":"Olá","type":"boundary","wikidata":"Q2217017","wikipedia":"es:Distrito de Olá","id":"relation/8434350"},"id":"relation/8434350"},
{"type":"Feature","geometry":{"type":"Polygon","coordinates":[[[-80.6516569,8.5806321],[-80.6251472,8.5904522],[-80.6143423,8.5775527],[-80.6073131,8.5748222],[-80.5980096,8.578672],[-80.5823348,8.5675971],[-80.5821323,8.5629637],[-80.5663842,8.5665476],[-80.5438098,8.5578446],[-80.5439683,8.5221367],[-80.5280674,8.5000011],[-80.5251652,8.4876881],[-80.4343593,8.5250873],[-80.4469216,8.5463469],[-80.4413713,8.5532409],[-80.4374439,8.5501453],[-80.4372815,8.5618104],[-80.4213511,8.5682689],[-80.4099759,8.5650394],[-80.4029955,8.5693411],[-80.4090509,8.6339326],[-80.396918,8.6571952],[-80.3910637,8.6611661],[-80.3840549,8.6601372],[-80.3819246,8.6789622],[-80.3915679,8.7009531],[-80.4269098,8.7091034],[-80.4399775,8.7298889],[-80.4196356,8.7664091],[-80.416653,8.8315725],[-80.4203774,8.8871518],[-80.4336408,8.8903101],[-80.4575954,8.9153051],[-80.4621633,8.911529],[-80.4660334,8.9146292],[-80.484006,8.9120106],[-80.4979338,8.9228382],[-80.5028617,8.917929],[-80.5051807,8.9240655],[-80.5120962,8.9218291],[-80.51436,8.9290564],[-80.5188876,8.9260564],[-80.5281621,8.9285947],[-80.5325868,8.9416134],[-80.5457607,8.9359588],[-80.5418545,8.9306858],[-80.5493117,8.9342267],[-80.5495559,8.9255114],[-80.5436436,8.920156],[-80.5474214,8.9175813],[-80.5474693,8.9105814],[-80.5533283,8.907484],[-80.5509157,8.8955828],[-80.5563429,8.894291],[-80.5523528,8.8875927],[-80.5618078,8.8852147],[-80.5558185,8.8720107],[-80.5458718,8.8778301],[-80.5500959,8.8665338],[-80.5425283,8.8635846],[-80.5460631,8.8603637],[-80.5429009,8.8469242],[-80.5460706,8.8397078],[-80.5404772,8.8181403],[-80.5493356,8.8058471],[-80.5540878,8.8085083],[-80.5563299,8.8048898],[-80.5515228,8.8021143],[-80.5533689,8.7993206],[-80.5477698,8.7901206],[-80.5550235,8.7932571],[-80.6238557,8.7757081],[-80.6241282,8.7873237],[-80.6314408,8.7829571],[-80.6337046,8.7870551],[-80.641821,8.7843885],[-80.6554744,8.7884308],[-80.6554413,8.7766857],[-80.6788999,8.7673971],[-80.6908465,8.757732],[-80.6917477,8.7476265],[-80.6863687,8.7411619],[-80.6882095,8.7329944],[-80.707136,8.7114136],[-80.7053455,8.6944989],[-80.7091456,8.6874577],[-80.7042542,8.6713948],[-80.6945336,8.6629558],[-80.6935829,8.6504257],[-80.7172145,8.6473548],[-80.7240744,8.6241423],[-80.7528805,8.6289588],[-80.7267664,8.6207363],[-80.6882598,8.5905945],[-80.6614984,8.5908374],[-80.653467,8.5863926],[-80.6516569,8.5806321]]]},"properties":{"admin_level":"6","alt_name":"Distrito de La Pintada","boundary":"administrative","expected_level_8:2010":"6","name":"La Pintada","type":"boundary","wikidata":"Q2215435","wikipedia":"es:Distrito de La Pintada","id":"relation/8434415"},"id":"relation/8434415"},
{"type":"Feature","geometry":{"type":"Polygon","coordinates":[[[-80.1168257,8.6573825],[-80.1189244,8.6732423],[-80.110041,8.6927147],[-80.1149225,8.7064169],[-80.1126909,8.7147737],[-80.1177469,8.7199595],[-80.1154804,8.7306808],[-80.1215744,8.7330562],[-80.1268316,8.7622597],[-80.1401353,8.7684098],[-80.1532889,8.7857142],[-80.1497698,8.788683],[-80.1587391,8.7930408],[-80.1574516,8.7985754],[-80.1623011,8.8054776],[-80.1582027,8.8088279],[-80.1664853,8.8202146],[-80.1633525,8.8260244],[-80.1688671,8.8335304],[-80.1679874,8.8391916],[-80.1754851,8.8451189],[-80.1663816,8.8573181],[-80.1691229,8.8576732],[-80.1709493,8.8775068],[-80.1665451,8.8766959],[-80.1727249,8.8953838],[-80.1690986,8.900461],[-80.1657834,8.897244],[-80.1610098,8.9067413],[-80.1577536,8.9066777],[-80.1589338,8.9116329],[-80.1526359,8.9150883],[-80.148398,8.912396],[-80.1480386,8.9238971],[-80.1446483,8.9186823],[-80.1408074,8.9270502],[-80.1403246,8.9226994],[-80.1365858,8.9242521],[-80.1391486,8.9289986],[-80.1343284,8.9304024],[-80.1339828,8.9356996],[-80.1413321,8.9339421],[-80.1392773,8.9377829],[-80.14452,8.9412356],[-80.1402079,8.9484443],[-80.1459238,8.9517799],[-80.1456503,8.9574539],[-80.1543771,8.961833],[-80.1526217,8.9663908],[-80.1609662,8.962477],[-80.1628559,8.9688417],[-80.1676707,8.9677353],[-80.1667345,8.9716325],[-80.1756396,8.9687096],[-80.1710422,8.9831688],[-80.1769863,8.9824753],[-80.1811157,8.9866798],[-80.1776216,8.9915482],[-80.181099,8.9950766],[-80.1769863,8.9978507],[-80.184823,9.0087437],[-80.1803593,9.0141646],[-80.1853412,9.0188135],[-80.1782621,9.0268166],[-80.1841717,9.0333676],[-80.1838875,9.0418441],[-80.1898246,9.0411176],[-80.1899081,9.0464358],[-80.194735,9.0495879],[-80.1951652,9.0571762],[-80.2064892,9.0471194],[-80.2060815,9.0390669],[-80.2029823,9.038761],[-80.2071357,9.0239521],[-80.2046025,9.0197651],[-80.2210956,8.9798629],[-80.2307543,8.9789203],[-80.2335771,8.9893924],[-80.239506,8.9873611],[-80.3658813,8.8614739],[-80.3675067,8.8712001],[-80.3725546,8.8724194],[-80.3762163,8.8793781],[-80.4108435,8.8799417],[-80.4126101,8.8847415],[-80.4203774,8.8871518],[-80.416653,8.8315725],[-80.4196356,8.7664091],[-80.4399775,8.7298889],[-80.4269098,8.7091034],[-80.3915679,8.7009531],[-80.3819246,8.6789622],[-80.3840549,8.6601372],[-80.3910637,8.6611661],[-80.396918,8.6571952],[-80.4090509,8.6339326],[-80.4029955,8.5693411],[-80.4099759,8.5650394],[-80.4213511,8.5682689],[-80.4372815,8.5618104],[-80.4374439,8.5501453],[-80.4413713,8.5532409],[-80.4469216,8.5463469],[-80.4343593,8.5250873],[-80.5251652,8.4876881],[-80.5207795,8.4715817],[-80.5068231,8.4544009],[-80.5087389,8.4337619],[-80.4986295,8.4201543],[-80.4981939,8.4139728],[-80.5030972,8.40931],[-80.4998231,8.4061805],[-80.503809,8.4013768],[-80.4924206,8.3948987],[-80.4969918,8.3920664],[-80.4975296,8.3851657],[-80.4912343,8.3917222],[-80.4921043,8.3856195],[-80.4865841,8.3835226],[-80.4898266,8.3810346],[-80.4844804,8.3802522],[-80.4854452,8.3637428],[-80.4770305,8.3682967],[-80.4829028,8.3437869],[-80.4803091,8.3388693],[-80.4746872,8.3391772],[-80.4775089,8.3325027],[-80.4715598,8.333535],[-80.4739121,8.3247851],[-80.4567432,8.3275372],[-80.4565448,8.3336916],[-80.4477042,8.3410163],[-80.4399231,8.3411755],[-80.4364678,8.3368426],[-80.4342744,8.3398141],[-80.4318658,8.3353901],[-80.4307741,8.3426935],[-80.4211986,8.3358705],[-80.4200721,8.3433251],[-80.4152924,8.3403024],[-80.4165986,8.3485478],[-80.4102176,8.3431075],[-80.4097617,8.3475526],[-80.4056311,8.3474173],[-80.4100379,8.3500392],[-80.4060575,8.3505514],[-80.3975898,8.3459391],[-80.4032359,8.3389516],[-80.3986681,8.3284183],[-80.4016171,8.3226604],[-80.3959322,8.3247347],[-80.3941512,8.333811],[-80.3864586,8.3281105],[-80.3947842,8.3161039],[-80.3902674,8.3012306],[-80.3749196,8.3085097],[-80.3702633,8.3031591],[-80.3602526,8.3023795],[-80.3587378,8.3080459],[-80.3554676,8.3077587],[-80.3591554,8.3165194],[-80.3553566,8.3135259],[-80.3527439,8.3156945],[-80.3616994,8.3248449],[-80.3614072,8.3278382],[-80.3586761,8.3256439],[-80.3595988,8.3317798],[-80.3371755,8.3384676],[-80.3327791,8.3501284],[-80.3340963,8.3737148],[-80.3307789,8.376836],[-80.3344703,8.3875024],[-80.3242091,8.3963668],[-80.3264044,8.411521],[-80.3212657,8.4145132],[-80.322778,8.4248408],[-80.3190866,8.4250499],[-80.3223552,8.4269802],[-80.3163383,8.4333182],[-80.3146634,8.4439348],[-80.3198834,8.4576717],[-80.3033567,8.4815833],[-80.3074122,8.4833554],[-80.3072513,8.4906136],[-80.2998618,8.513819],[-80.2806572,8.5276629],[-80.2793938,8.5423445],[-80.2675438,8.5454744],[-80.2575446,8.5425143],[-80.2470357,8.5463868],[-80.2459038,8.5507421],[-80.2360225,8.5557657],[-80.2314199,8.5671919],[-80.1861334,8.5876033],[-80.1793149,8.6165859],[-80.1537802,8.6196409],[-80.1400044,8.6476865],[-80.1339104,8.6438892],[-80.1168257,8.6573825]]]},"properties":{"admin_level":"6","alt_name":"Distrito de Penonomé","boundary":"administrative","expected_level_8:2010":"10","name":"Penonomé","type":"boundary","wikidata":"Q2216569","wikipedia":"es:Distrito de Penonomé","id":"relation/8434519"},"id":"relation/8434519"},
{"type":"Feature","geometry":{"type":"Polygon","coordinates":[[[-80.4710538,8.2265739],[-80.4748637,8.2365227],[-80.4975499,8.2414282],[-80.4912413,8.2443588],[-80.4933227,8.2509631],[-80.4861988,8.2541696],[-80.4950474,8.2624912],[-80.4906998,8.2664881],[-80.4929096,8.2704882],[-80.4877951,8.2697565],[-80.4905896,8.2741586],[-80.4937372,8.272421],[-80.4932421,8.2767004],[-80.4994364,8.2743501],[-80.5013054,8.2796543],[-80.5252517,8.2724966],[-80.5407734,8.2743897],[-80.5468163,8.2677811],[-80.548208,8.2707111],[-80.5545032,8.266561],[-80.5676632,8.2728831],[-80.5815268,8.2688801],[-80.5928943,8.281738],[-80.6083981,8.2855939],[-80.6119815,8.2963592],[-80.6281646,8.3060091],[-80.6437157,8.3045858],[-80.6469006,8.3004453],[-80.6622556,8.3157408],[-80.670372,8.3155098],[-80.6801323,8.324123],[-80.7023241,8.3275424],[-80.7036224,8.2983843],[-80.7096,8.2904544],[-80.7105527,8.2789752],[-80.7163294,8.27448],[-80.7171913,8.2570191],[-80.7114834,8.2502277],[-80.7172563,8.24445],[-80.7162481,8.2369503],[-80.7241351,8.220888],[-80.723013,8.2118909],[-80.7344126,8.1984674],[-80.7413727,8.198065],[-80.7464626,8.1889064],[-80.734224,8.1745254],[-80.7151003,8.1652709],[-80.7205953,8.1622864],[-80.719707,8.1589873],[-80.7105768,8.152732],[-80.7024765,8.1554826],[-80.7018972,8.146827],[-80.6937969,8.1394456],[-80.6758486,8.1383944],[-80.6711412,8.1331149],[-80.6792483,8.1322735],[-80.665173,8.129287],[-80.6645472,8.1230643],[-80.6498927,8.1313027],[-80.6431026,8.12925],[-80.6280652,8.1387087],[-80.5979997,8.1399569],[-80.5897992,8.1454489],[-80.5861193,8.1423793],[-80.5880059,8.1390138],[-80.5982351,8.1379587],[-80.5987179,8.1341883],[-80.5837936,8.1300082],[-80.577177,8.1386145],[-80.5727537,8.1323105],[-80.5668415,8.1333368],[-80.5566861,8.1210095],[-80.5594112,8.1069042],[-80.5530168,8.1069254],[-80.5512358,8.117377],[-80.5387904,8.1143393],[-80.539241,8.1235798],[-80.5328681,8.1223902],[-80.5346705,8.116676],[-80.5299069,8.115805],[-80.5251004,8.1235798],[-80.5256368,8.1110466],[-80.5172254,8.109857],[-80.5163242,8.1003187],[-80.5097796,8.1016783],[-80.5107923,8.109523],[-80.5062817,8.1121685],[-80.5051233,8.1056084],[-80.4977419,8.1021457],[-80.496669,8.0937757],[-80.484026,8.0902024],[-80.4786837,8.1024359],[-80.4868966,8.1335192],[-80.4874599,8.1802325],[-80.4940199,8.1750673],[-80.491046,8.180987],[-80.4822966,8.1816582],[-80.4770905,8.1915317],[-80.4832888,8.2030896],[-80.4710538,8.2265739]]]},"properties":{"admin_level":"6","alt_name":"Distrito de Aguadulce","boundary":"administrative","expected_level_8:2010":"5","name":"Aguadulce","type":"boundary","wikidata":"Q2216595","wikipedia":"es:Distrito de Aguadulce","id":"relation/8434677"},"id":"relation/8434677"}
]}